STARLINK-36441          
1 67469U 26008AA  26044.50003471 -.01949239  00000+0 -62110-1 0  9993
2 67469  43.0005 342.2015 0001430 278.5934 254.2570 15.35440618  5916
STARLINK-36454          
1 67470U 26008AB  26044.50003471 -.02067644  00000+0 -48872-1 0  9996
2 67470  43.0000 341.9246 0001031 248.6491  36.7468 15.44612432  5912
STARLINK-36334          
1 67471U 26008AC  26044.50003471 -.00010867  00000+0 -37614-3 0  9994
2 67471  43.0003 342.2868 0001082 257.8691 236.6687 15.28415880  5914
STARLINK-36269          
1 67472U 26008AD  26044.50003471 -.02046193  00000+0 -69625-1 0  9993
2 67472  43.0006 342.1103 0000987 287.4617 280.9985 15.32995635  5930
STARLINK-36408          
1 67473U 26008AE  26044.50003471 -.02071862  00000+0 -59363-1 0  9993
2 67473  43.0009 342.0553 0000872 279.6299 311.7430 15.38923440  5933
ALSAT-3A                
1 67474U 26009A   26044.44208906  .00006782  00000+0  28637-3 0  9995
2 67474  97.4676 119.0784 0012867 154.0610 206.1274 15.23521386  4439
CZ-2C R/B               
1 67475U 26009B   26044.37167090  .00002880  00000+0  19490-3 0  9998
2 67475  97.1737 116.7101 0100357 122.6873 238.4081 15.03157744  4420
TIANQI-37               
1 67476U 26010A   26039.27753693  .00000165  00000+0  15719-3 0  9998
2 67476  44.9825 296.6529 0012909  70.2546 289.9683 14.13528441  3324
TIANQI-38               
1 67477U 26010B   26039.27310946  .00000208  00000+0  17865-3 0  9991
2 67477  44.9788 296.6199 0011754  75.6443 284.5700 14.13905796  3321
TIANQI-39               
1 67478U 26010C   26039.27859865  .00000167  00000+0  15988-3 0  9998
2 67478  44.9839 296.6613 0016488  82.3005 277.9705 14.13055169  3329
TIANQI-40               
1 67479U 26010D   26040.19213046  .00000156  00000+0  15351-3 0  9999
2 67479  44.9786 292.4342 0011741  80.4003 279.8161 14.13182235  3454
SZ-20 MODULE            
1 67481U 25082C   26044.29255673  .00024261  00000+0  26472-3 0  9996
2 67481  41.4801 356.0296 0007578 171.4719 188.6251 15.62764589273808
